STARS (KUKAI)           
1 33498U 09002G   26068.71826512  .00006351  00000+0  58664-3 0  9998
2 33498  98.1461  12.0831 0009772 130.4363 229.7710 14.94938540923614
STARLINK-5797           
1 55784U 23028AV  26068.75272391 -.00001343  00000+0 -10479-3 0  9998
2 55784  70.0015 204.3748 0003265 274.0600  86.0186 14.98326824167030
